{
  "links" : {
    "next" : "https://api.nasa.gov/neo/rest/v1/feed?start_date=2007-04-09&end_date=2007-04-09&detailed=true&api_key=t0TVs3DtDT2H8Oy2Zy8m2eVrNsAVKAexjcZXUckd",
    "prev" : "https://api.nasa.gov/neo/rest/v1/feed?start_date=2007-04-07&end_date=2007-04-07&detailed=true&api_key=t0TVs3DtDT2H8Oy2Zy8m2eVrNsAVKAexjcZXUckd",
    "self" : "https://api.nasa.gov/neo/rest/v1/feed?start_date=2007-04-08&end_date=2007-04-08&detailed=true&api_key=t0TVs3DtDT2H8Oy2Zy8m2eVrNsAVKAexjcZXUckd"
  },
  "element_count" : 7,
  "near_earth_objects" : {
    "2007-04-08" : [ {
      "links" : {
        "self" : "https://api.nasa.gov/neo/rest/v1/neo/3074754?api_key=t0TVs3DtDT2H8Oy2Zy8m2eVrNsAVKAexjcZXUckd"
      },
      "neo_reference_id" : "3074754",
      "name" : "(2001 HB)",
      "nasa_jpl_url" : "http://ssd.jpl.nasa.gov/sbdb.cgi?sstr=3074754",
      "absolute_magnitude_h" : 20.4,
      "estimated_diameter" : {
        "kilometers" : {
          "estimated_diameter_min" : 0.2210828104,
          "estimated_diameter_max" : 0.4943561926
        },
        "meters" : {
          "estimated_diameter_min" : 221.0828103591,
          "estimated_diameter_max" : 494.3561926196
        },
        "miles" : {
          "estimated_diameter_min" : 0.137374447,
          "estimated_diameter_max" : 0.3071786018
        },
        "feet" : {
          "estimated_diameter_min" : 725.3373275385,
          "estimated_diameter_max" : 1621.9035709942
        }
      },
      "is_potentially_hazardous_asteroid" : true,
      "close_approach_data" : [ {
        "close_approach_date" : "2007-04-08",
        "epoch_date_close_approach" : 1176015600000,
        "relative_velocity" : {
          "kilometers_per_second" : "27.4466707388",
          "kilometers_per_hour" : "98808.0146598218",
          "miles_per_hour" : "61395.4577757099"
        },
        "miss_distance" : {
          "astronomical" : "0.1579618579",
          "lunar" : "61.4471626282",
          "kilometers" : "23630758",
          "miles" : "14683472"
        },
        "orbiting_body" : "Earth"
      } ],
      "orbital_data" : {
        "orbit_id" : "30",
        "orbit_determination_date" : "2017-09-13 06:17:47",
        "orbit_uncertainty" : "0",
        "minimum_orbit_intersection" : ".013697",
        "jupiter_tisserand_invariant" : "4.674",
        "epoch_osculation" : "2458000.5",
        "eccentricity" : ".6938934702118034",
        "semi_major_axis" : "1.314019953010676",
        "inclination" : "9.289064066632896",
        "ascending_node_longitude" : "195.9385721107399",
        "orbital_period" : "550.1756519220929",
        "perihelion_distance" : ".4022300878885474",
        "perihelion_argument" : "237.8475378103354",
        "aphelion_distance" : "2.225809818132805",
        "perihelion_time" : "2458002.264526393036",
        "mean_anomaly" : "358.8454060093835",
        "mean_motion" : ".6543364809807639",
        "equinox" : "J2000"
      }
    }, {
      "links" : {
        "self" : "https://api.nasa.gov/neo/rest/v1/neo/3472299?api_key=t0TVs3DtDT2H8Oy2Zy8m2eVrNsAVKAexjcZXUckd"
      },
      "neo_reference_id" : "3472299",
      "name" : "(2009 UY17)",
      "nasa_jpl_url" : "http://ssd.jpl.nasa.gov/sbdb.cgi?sstr=3472299",
      "absolute_magnitude_h" : 20.9,
      "estimated_diameter" : {
        "kilometers" : {
          "estimated_diameter_min" : 0.1756123185,
          "estimated_diameter_max" : 0.3926810818
        },
        "meters" : {
          "estimated_diameter_min" : 175.6123184804,
          "estimated_diameter_max" : 392.6810818086
        },
        "miles" : {
          "estimated_diameter_min" : 0.1091204019,
          "estimated_diameter_max" : 0.2440006365
        },
        "feet" : {
          "estimated_diameter_min" : 576.1559189633,
          "estimated_diameter_max" : 1288.3238004408
        }
      },
      "is_potentially_hazardous_asteroid" : true,
      "close_approach_data" : [ {
        "close_approach_date" : "2007-04-08",
        "epoch_date_close_approach" : 1176015600000,
        "relative_velocity" : {
          "kilometers_per_second" : "29.7248017543",
          "kilometers_per_hour" : "107009.2863153749",
          "miles_per_hour" : "66491.4090441283"
        },
        "miss_distance" : {
          "astronomical" : "0.4171795034",
          "lunar" : "162.2828216553",
          "kilometers" : "62409164",
          "miles" : "38779256"
        },
        "orbiting_body" : "Earth"
      } ],
      "orbital_data" : {
        "orbit_id" : "10",
        "orbit_determination_date" : "2017-04-06 08:59:28",
        "orbit_uncertainty" : "8",
        "minimum_orbit_intersection" : ".0142423",
        "jupiter_tisserand_invariant" : "6.916",
        "epoch_osculation" : "2455129.5",
        "eccentricity" : ".3160950026748142",
        "semi_major_axis" : ".8185210340174743",
        "inclination" : "42.0487345716077",
        "ascending_node_longitude" : "202.0965381892554",
        "orbital_period" : "270.4850045386663",
        "perihelion_distance" : ".5597906255803291",
        "perihelion_argument" : "30.56063342061218",
        "aphelion_distance" : "1.07725144245462",
        "perihelion_time" : "2455024.934929186671",
        "mean_anomaly" : "139.1701013407464",
        "mean_motion" : "1.330942543798348",
        "equinox" : "J2000"
      }
    }, {
      "links" : {
        "self" : "https://api.nasa.gov/neo/rest/v1/neo/3610183?api_key=t0TVs3DtDT2H8Oy2Zy8m2eVrNsAVKAexjcZXUckd"
      },
      "neo_reference_id" : "3610183",
      "name" : "(2012 TZ79)",
      "nasa_jpl_url" : "http://ssd.jpl.nasa.gov/sbdb.cgi?sstr=3610183",
      "absolute_magnitude_h" : 22.5,
      "estimated_diameter" : {
        "kilometers" : {
          "estimated_diameter_min" : 0.0840533402,
          "estimated_diameter_max" : 0.1879489824
        },
        "meters" : {
          "estimated_diameter_min" : 84.0533402073,
          "estimated_diameter_max" : 187.9489824394
        },
        "miles" : {
          "estimated_diameter_min" : 0.0522283081,
          "estimated_diameter_max" : 0.1167860472
        },
        "feet" : {
          "estimated_diameter_min" : 275.7655606856,
          "estimated_diameter_max" : 616.6305395464
        }
      },
      "is_potentially_hazardous_asteroid" : false,
      "close_approach_data" : [ {
        "close_approach_date" : "2007-04-08",
        "epoch_date_close_approach" : 1176015600000,
        "relative_velocity" : {
          "kilometers_per_second" : "21.6439117927",
          "kilometers_per_hour" : "77918.0824536264",
          "miles_per_hour" : "48415.2662890325"
        },
        "miss_distance" : {
          "astronomical" : "0.4995476841",
          "lunar" : "194.3240509033",
          "kilometers" : "74731272",
          "miles" : "46435860"
        },
        "orbiting_body" : "Earth"
      } ],
      "orbital_data" : {
        "orbit_id" : "11",
        "orbit_determination_date" : "2017-04-23 06:17:17",
        "orbit_uncertainty" : "2",
        "minimum_orbit_intersection" : ".119322",
        "jupiter_tisserand_invariant" : "4.643",
        "epoch_osculation" : "2458000.5",
        "eccentricity" : ".3133607852703275",
        "semi_major_axis" : "1.418018348485028",
        "inclination" : "10.77232039255799",
        "ascending_node_longitude" : "7.986380151902867",
        "orbital_period" : "616.7671046946741",
        "perihelion_distance" : ".9736670052760263",
        "perihelion_argument" : "262.7422221460732",
        "aphelion_distance" : "1.862369691694029",
        "perihelion_time" : "2457939.084033563844",
        "mean_anomaly" : "35.84780664974275",
        "mean_motion" : ".5836887169561601",
        "equinox" : "J2000"
      }
    } ]
  }
}